CCSDS_OMM_VERS = 2.0
CREATION_DATE  = 
ORIGINATOR     = 

OBJECT_NAME    = STARLINK-35820
OBJECT_ID      = 2025-270K
CENTER_NAME    = EARTH
REF_FRAME      = TEME
TIME_SYSTEM    = UTC
MEAN_ELEMENT_THEORY = SGP/SGP4

EPOCH          = 2025-12-01T16:00:03.999744
MEAN_MOTION    = 15.83398272
ECCENTRICITY   = .00016387
INCLINATION    = 42.9985
RA_OF_ASC_NODE = 258.8905
ARG_OF_PERICENTER = 256.1171
MEAN_ANOMALY   = 318.3362

EPHEMERIS_TYPE = 0
CLASSIFICATION_TYPE = U
NORAD_CAT_ID   = 66597
ELEMENT_SET_NO = 999
REV_AT_EPOCH   = 273
BSTAR          = -.78880289E-2
MEAN_MOTION_DOT = -.1557595E-1
MEAN_MOTION_DDOT = 0

CCSDS_OMM_VERS = 2.0
CREATION_DATE  = 
ORIGINATOR     = 

OBJECT_NAME    = STARLINK-35981
OBJECT_ID      = 2025-270L
CENTER_NAME    = EARTH
REF_FRAME      = TEME
TIME_SYSTEM    = UTC
MEAN_ELEMENT_THEORY = SGP/SGP4

EPOCH          = 2025-12-01T16:00:03.999744
MEAN_MOTION    = 15.83410258
ECCENTRICITY   = .00016323
INCLINATION    = 42.9982
RA_OF_ASC_NODE = 258.8851
ARG_OF_PERICENTER = 253.0536
MEAN_ANOMALY   = 323.5301

EPHEMERIS_TYPE = 0
CLASSIFICATION_TYPE = U
NORAD_CAT_ID   = 66598
ELEMENT_SET_NO = 999
REV_AT_EPOCH   = 246
BSTAR          = -.79403489E-2
MEAN_MOTION_DOT = -.1567427E-1
MEAN_MOTION_DDOT = 0

CCSDS_OMM_VERS = 2.0
CREATION_DATE  = 
ORIGINATOR     = 

OBJECT_NAME    = STARLINK-35930
OBJECT_ID      = 2025-270M
CENTER_NAME    = EARTH
REF_FRAME      = TEME
TIME_SYSTEM    = UTC
MEAN_ELEMENT_THEORY = SGP/SGP4

EPOCH          = 2025-12-01T16:00:03.999744
MEAN_MOTION    = 15.83437481
ECCENTRICITY   = .00016033
INCLINATION    = 42.9985
RA_OF_ASC_NODE = 258.8805
ARG_OF_PERICENTER = 261.8481
MEAN_ANOMALY   = 316.5723

EPHEMERIS_TYPE = 0
CLASSIFICATION_TYPE = U
NORAD_CAT_ID   = 66599
ELEMENT_SET_NO = 999
REV_AT_EPOCH   = 262
BSTAR          = -.79468079E-2
MEAN_MOTION_DOT = -.1570317E-1
MEAN_MOTION_DDOT = 0

CCSDS_OMM_VERS = 2.0
CREATION_DATE  = 
ORIGINATOR     = 

OBJECT_NAME    = STARLINK-35980
OBJECT_ID      = 2025-270N
CENTER_NAME    = EARTH
REF_FRAME      = TEME
TIME_SYSTEM    = UTC
MEAN_ELEMENT_THEORY = SGP/SGP4

EPOCH          = 2025-12-01T16:00:03.999744
MEAN_MOTION    = 15.83448962
ECCENTRICITY   = .00016198
INCLINATION    = 42.9984
RA_OF_ASC_NODE = 258.8753
ARG_OF_PERICENTER = 258.6864
MEAN_ANOMALY   = 321.8063

EPHEMERIS_TYPE = 0
CLASSIFICATION_TYPE = U
NORAD_CAT_ID   = 66600
ELEMENT_SET_NO = 999
REV_AT_EPOCH   = 252
BSTAR          = -.79722654E-2
MEAN_MOTION_DOT = -.1575492E-1
MEAN_MOTION_DDOT = 0

CCSDS_OMM_VERS = 2.0
CREATION_DATE  = 
ORIGINATOR     = 

OBJECT_NAME    = STARLINK-35978
OBJECT_ID      = 2025-270P
CENTER_NAME    = EARTH
REF_FRAME      = TEME
TIME_SYSTEM    = UTC
MEAN_ELEMENT_THEORY = SGP/SGP4

EPOCH          = 2025-12-01T16:00:03.999744
MEAN_MOTION    = 15.83480446
ECCENTRICITY   = .00016728
INCLINATION    = 42.9985
RA_OF_ASC_NODE = 258.8705
ARG_OF_PERICENTER = 256.5646
MEAN_ANOMALY   = 325.8265

EPHEMERIS_TYPE = 0
CLASSIFICATION_TYPE = U
NORAD_CAT_ID   = 66601
ELEMENT_SET_NO = 999
REV_AT_EPOCH   = 246
BSTAR          = -.80290301E-2
MEAN_MOTION_DOT = -.1587438E-1
MEAN_MOTION_DDOT = 0

CCSDS_OMM_VERS = 2.0
CREATION_DATE  = 
ORIGINATOR     = 

OBJECT_NAME    = STARLINK-36050
OBJECT_ID      = 2025-270Q
CENTER_NAME    = EARTH
REF_FRAME      = TEME
TIME_SYSTEM    = UTC
MEAN_ELEMENT_THEORY = SGP/SGP4

EPOCH          = 2025-12-01T16:00:03.999744
MEAN_MOTION    = 15.83486522
ECCENTRICITY   = .00015564
INCLINATION    = 42.9985
RA_OF_ASC_NODE = 258.8650
ARG_OF_PERICENTER = 261.3844
MEAN_ANOMALY   = 323.1918

EPHEMERIS_TYPE = 0
CLASSIFICATION_TYPE = U
NORAD_CAT_ID   = 66602
ELEMENT_SET_NO = 999
REV_AT_EPOCH   = 252
BSTAR          = -.80766159E-2
MEAN_MOTION_DOT = -.1595958E-1
MEAN_MOTION_DDOT = 0

CCSDS_OMM_VERS = 2.0
CREATION_DATE  = 
ORIGINATOR     = 

OBJECT_NAME    = STARLINK-36048
OBJECT_ID      = 2025-270R
CENTER_NAME    = EARTH
REF_FRAME      = TEME
TIME_SYSTEM    = UTC
MEAN_ELEMENT_THEORY = SGP/SGP4

EPOCH          = 2025-12-01T16:00:03.999744
MEAN_MOTION    = 15.83494150
ECCENTRICITY   = .00016747
INCLINATION    = 42.9987
RA_OF_ASC_NODE = 258.8594
ARG_OF_PERICENTER = 259.5355
MEAN_ANOMALY   = 327.2873

EPHEMERIS_TYPE = 0
CLASSIFICATION_TYPE = U
NORAD_CAT_ID   = 66603
ELEMENT_SET_NO = 999
REV_AT_EPOCH   = 252
BSTAR          = -.81664824E-2
MEAN_MOTION_DOT = -.1612048E-1
MEAN_MOTION_DDOT = 0

CCSDS_OMM_VERS = 2.0
CREATION_DATE  = 
ORIGINATOR     = 

OBJECT_NAME    = STARLINK-35977
OBJECT_ID      = 2025-270S
CENTER_NAME    = EARTH
REF_FRAME      = TEME
TIME_SYSTEM    = UTC
MEAN_ELEMENT_THEORY = SGP/SGP4

EPOCH          = 2025-12-01T16:00:03.999744
MEAN_MOTION    = 15.83526926
ECCENTRICITY   = .00016571
INCLINATION    = 42.9987
RA_OF_ASC_NODE = 258.8550
ARG_OF_PERICENTER = 255.1952
MEAN_ANOMALY   = 333.4134

EPHEMERIS_TYPE = 0
CLASSIFICATION_TYPE = U
NORAD_CAT_ID   = 66604
ELEMENT_SET_NO = 999
REV_AT_EPOCH   = 262
BSTAR          = -.81829034E-2
MEAN_MOTION_DOT = -.1617075E-1
MEAN_MOTION_DDOT = 0

CCSDS_OMM_VERS = 2.0
CREATION_DATE  = 
ORIGINATOR     = 

OBJECT_NAME    = STARLINK-36052
OBJECT_ID      = 2025-270T
CENTER_NAME    = EARTH
REF_FRAME      = TEME
TIME_SYSTEM    = UTC
MEAN_ELEMENT_THEORY = SGP/SGP4

EPOCH          = 2025-12-01T16:00:03.999744
MEAN_MOTION    = 15.83557272
ECCENTRICITY   = .00016951
INCLINATION    = 42.9987
RA_OF_ASC_NODE = 258.8505
ARG_OF_PERICENTER = 255.4158
MEAN_ANOMALY   = 335.0133

EPHEMERIS_TYPE = 0
CLASSIFICATION_TYPE = U
NORAD_CAT_ID   = 66605
ELEMENT_SET_NO = 999
REV_AT_EPOCH   = 262
BSTAR          = -.82038068E-2
MEAN_MOTION_DOT = -.1622765E-1
MEAN_MOTION_DDOT = 0

CCSDS_OMM_VERS = 2.0
CREATION_DATE  = 
ORIGINATOR     = 

OBJECT_NAME    = STARLINK-36063
OBJECT_ID      = 2025-270U
CENTER_NAME    = EARTH
REF_FRAME      = TEME
TIME_SYSTEM    = UTC
MEAN_ELEMENT_THEORY = SGP/SGP4

EPOCH          = 2025-12-01T16:00:03.999744
MEAN_MOTION    = 15.83600704
ECCENTRICITY   = .00017054
INCLINATION    = 42.9988
RA_OF_ASC_NODE = 258.8400
ARG_OF_PERICENTER = 255.3763
MEAN_ANOMALY   = 339.1559

EPHEMERIS_TYPE = 0
CLASSIFICATION_TYPE = U
NORAD_CAT_ID   = 66606
ELEMENT_SET_NO = 999
REV_AT_EPOCH   = 262
BSTAR          = -.84163154E-2
MEAN_MOTION_DOT = -.1662219E-1
MEAN_MOTION_DDOT = 0

CCSDS_OMM_VERS = 2.0
CREATION_DATE  = 
ORIGINATOR     = 

OBJECT_NAME    = STARLINK-35993
OBJECT_ID      = 2025-270V
CENTER_NAME    = EARTH
REF_FRAME      = TEME
TIME_SYSTEM    = UTC
MEAN_ELEMENT_THEORY = SGP/SGP4

EPOCH          = 2025-12-01T16:00:03.999744
MEAN_MOTION    = 15.83565253
ECCENTRICITY   = .00016238
INCLINATION    = 42.9989
RA_OF_ASC_NODE = 258.8449
ARG_OF_PERICENTER = 254.1167
MEAN_ANOMALY   = 338.5500

EPHEMERIS_TYPE = 0
CLASSIFICATION_TYPE = U
NORAD_CAT_ID   = 66607
ELEMENT_SET_NO = 999
REV_AT_EPOCH   = 252
BSTAR          = -.83314009E-2
MEAN_MOTION_DOT = -.1645159E-1
MEAN_MOTION_DDOT = 0

CCSDS_OMM_VERS = 2.0
CREATION_DATE  = 
ORIGINATOR     = 

OBJECT_NAME    = STARLINK-36036
OBJECT_ID      = 2025-270W
CENTER_NAME    = EARTH
REF_FRAME      = TEME
TIME_SYSTEM    = UTC
MEAN_ELEMENT_THEORY = SGP/SGP4

EPOCH          = 2025-12-01T16:00:03.999744
MEAN_MOTION    = 15.83634547
ECCENTRICITY   = .00016477
INCLINATION    = 42.9989
RA_OF_ASC_NODE = 258.8356
ARG_OF_PERICENTER = 255.9792
MEAN_ANOMALY   = 340.4190

EPHEMERIS_TYPE = 0
CLASSIFICATION_TYPE = U
NORAD_CAT_ID   = 66608
ELEMENT_SET_NO = 999
REV_AT_EPOCH   = 246
BSTAR          = -.85117111E-2
MEAN_MOTION_DOT = -.168082E-1
MEAN_MOTION_DDOT = 0

