STARLINK-35820          
1 66597U 25270K   25335.66671296 -.01557595  00000+0 -78880-2 0  9991
2 66597  42.9985 258.8905 0001638 256.1171 318.3362 15.83398272  2736
STARLINK-35981          
1 66598U 25270L   25335.66671296 -.01567427  00000+0 -79403-2 0  9999
2 66598  42.9982 258.8851 0001632 253.0536 323.5301 15.83410258  2469
STARLINK-35930          
1 66599U 25270M   25335.66671296 -.01570317  00000+0 -79468-2 0  9993
2 66599  42.9985 258.8805 0001603 261.8481 316.5723 15.83437481  2621
STARLINK-35980          
1 66600U 25270N   25335.66671296 -.01575492  00000+0 -79723-2 0  9999
2 66600  42.9984 258.8753 0001619 258.6864 321.8063 15.83448962  2522
STARLINK-35978          
1 66601U 25270P   25335.66671296 -.01587438  00000+0 -80290-2 0  9994
2 66601  42.9985 258.8705 0001672 256.5646 325.8265 15.83480446  2469
STARLINK-36050          
1 66602U 25270Q   25335.66671296 -.01595958  00000+0 -80766-2 0  9999
2 66602  42.9985 258.8650 0001556 261.3844 323.1918 15.83486522  2528
STARLINK-36048          
1 66603U 25270R   25335.66671296 -.01612048  00000+0 -81665-2 0  9999
2 66603  42.9987 258.8594 0001674 259.5355 327.2873 15.83494150  2526
STARLINK-35977          
1 66604U 25270S   25335.66671296 -.01617075  00000+0 -81829-2 0  9997
2 66604  42.9987 258.8550 0001657 255.1952 333.4134 15.83526926  2622
STARLINK-36052          
1 66605U 25270T   25335.66671296 -.01622765  00000+0 -82038-2 0  9993
2 66605  42.9987 258.8505 0001695 255.4158 335.0133 15.83557272  2621
STARLINK-36063          
1 66606U 25270U   25335.66671296 -.01662219  00000+0 -84163-2 0  9993
2 66606  42.9988 258.8400 0001705 255.3763 339.1559 15.83600704  2626
STARLINK-35993          
1 66607U 25270V   25335.66671296 -.01645159  00000+0 -83314-2 0  9995
2 66607  42.9989 258.8449 0001623 254.1167 338.5500 15.83565253  2522
STARLINK-36036          
1 66608U 25270W   25335.66671296 -.01680820  00000+0 -85117-2 0  9993
2 66608  42.9989 258.8356 0001647 255.9792 340.4190 15.83634547  2462
